OBJECT_NAME,OBJECT_ID,EPOCH,MEAN_MOTION,ECCENTRICITY,INCLINATION,RA_OF_ASC_NODE,ARG_OF_PERICENTER,MEAN_ANOMALY,EPHEMERIS_TYPE,CLASSIFICATION_TYPE,NORAD_CAT_ID,ELEMENT_SET_NO,REV_AT_EPOCH,BSTAR,MEAN_MOTION_DOT,MEAN_MOTION_DDOT
GSAT0225 (GALILEO 29),2024-079A,2026-07-19T09:03:08.287200,1.70473943,.00004351,55.1387,100.1800,337.1149,204.2884,0,U,59598,999,1386,0,-.37E-6,0
GSAT0227 (GALILEO 30),2024-079C,2026-07-18T02:12:23.834592,1.70473877,.00029504,55.1327,100.2145,69.2435,290.8270,0,U,59600,999,1389,0,-.31E-6,0
GSAT0232 (GALILEO 32),2024-167A,2026-07-19T19:10:07.611744,1.70474171,.0006423,55.1782,220.4182,233.3678,309.8047,0,U,61182,999,1143,0,.55E-6,0
GSAT0226 (GALILEO 31),2024-167B,2026-07-19T08:45:44.450784,1.70474126,.0003204,55.1770,220.4373,238.7510,129.6432,0,U,61183,999,1140,0,.53E-6,0
BEIDOU-3 M25 (C47),2024-168B,2026-07-19T14:40:30.313344,1.86230164,.0003422,54.4420,301.1145,291.6920,25.0720,0,U,61186,999,1238,0,-.97E-6,0
BEIDOU-3 M27 (C49),2024-168C,2026-07-19T10:07:53.508576,1.86230211,.00008576,54.4377,301.1038,40.8164,284.0569,0,U,61187,999,985,0,-.96E-6,0
GPS BIII-7  (PRN 01),2024-242A,2026-07-19T17:19:15.611808,2.00572353,.00179964,54.8338,332.8621,4.3540,337.1791,0,U,62339,999,1190,0,-.109E-5,0
QZS-6 (QZSS/PRN 200),2025-023A,2026-07-20T03:17:38.819904,1.00274422,.00019517,0.0131,43.6032,71.0329,323.1628,0,U,62876,999,527,0,-.236E-5,0
COSMOS 2584 (704K),2025-042A,2026-07-19T01:11:42.267264,2.13103871,.00055541,65.1027,71.7190,213.0172,147.0181,0,U,63130,999,1072,0,-.41E-6,0
GPS BIII-8  (PRN 21),2025-116A,2026-07-20T02:24:48.859200,2.00573628,.00084569,55.2572,29.8064,339.3458,98.9025,0,U,64202,999,853,0,-.9E-6,0
COSMOS 2596 (708K),2025-206B,2026-07-19T10:20:35.382912,2.13100906,.00112184,64.6134,313.8624,307.1523,101.2891,0,U,65590,999,660,0,-.8E-6,0
GSAT0233 (GALILEO 33),2025-302A,2026-07-18T07:30:10.718784,1.70473961,.00010389,54.3525,101.2437,152.4729,26.5070,0,U,67160,999,365,0,-.32E-6,0
GSAT0234 (GALILEO 34),2025-302C,2026-07-16T20:22:49.584000,1.70473930,.00022161,54.3544,101.2845,322.1435,218.7937,0,U,67162,999,368,0,-.28E-6,0
GPS BIII-9  (PRN 20),2026-017A,2026-07-20T02:27:29.246112,2.00570435,.00213058,55.1095,87.4339,260.2926,99.5185,0,U,67588,999,43227,0,-.54E-6,0
GPS BIII-10 (PRN 13),2026-087A,2026-07-20T06:24:52.845984,2.00573151,.00205256,54.9613,206.4792,106.0405,218.5629,0,U,68791,999,149,0,.68E-6,0
